[{"OBJECT_NAME":"HULIANWANG DIGUI-19","OBJECT_ID":"2025-030J","EPOCH":"2026-03-09T21:33:01.669536","MEAN_MOTION":13.29341751,"ECCENTRICITY":8.21e-5,"INCLINATION":50.0037,"RA_OF_ASC_NODE":231.8632,"ARG_OF_PERICENTER":169.9872,"MEAN_ANOMALY":190.1017,"EPHEMERIS_TYPE":0,"CLASSIFICATION_TYPE":"U","NORAD_CAT_ID":62979,"ELEMENT_SET_NO":999,"REV_AT_EPOCH":5265,"BSTAR":0.0001233365,"MEAN_MOTION_DOT":-6.7e-7,"MEAN_MOTION_DDOT":0},{"OBJECT_NAME":"NIMBUS 2","OBJECT_ID":"1966-040A","EPOCH":"2026-03-09T13:13:03.273312","MEAN_MOTION":13.3371257,"ECCENTRICITY":0.00553632,"INCLINATION":100.5439,"RA_OF_ASC_NODE":284.3265,"ARG_OF_PERICENTER":170.0397,"MEAN_ANOMALY":245.1177,"EPHEMERIS_TYPE":0,"CLASSIFICATION_TYPE":"U","NORAD_CAT_ID":2173,"ELEMENT_SET_NO":999,"REV_AT_EPOCH":91034,"BSTAR":5.4373855e-5,"MEAN_MOTION_DOT":-2.0e-7,"MEAN_MOTION_DDOT":0}]
